ONEWEB-0628             
1 55169U 23004AF  24261.68015250  .00000328  00000+0  87577-3 0  9996
2 55169  87.8876 117.6114 0001556  51.2356 308.8912 13.12441242 84414
ONEWEB-0629             
1 55170U 23004AG  24261.70556703  .00000083  00000+0  18097-3 0  9993
2 55170  87.9129 132.8526 0001363  69.7762 290.3516 13.17648962 83636
ONEWEB-0631             
1 55171U 23004AH  24262.11780115  .00000047  00000+0  85888-4 0  9999
2 55171  87.9068 102.2305 0002377  80.5959 279.5441 13.18682977 85712
ONEWEB-0709             
1 55172U 23004AJ  24262.12631269  .00000417  00000+0  11413-2 0  9998
2 55172  87.8967 147.9822 0002759  85.4822 274.6621 13.11418660 82382
ONEWEB-0710             
1 55173U 23004AK  24262.17571057  .00000124  00000+0  28713-3 0  9999
2 55173  87.9128 132.7818 0001899  75.3089 284.8252 13.17652861 83694
ONEWEB-0711             
1 55174U 23004AL  24261.71598995 -.00000574  00000+0 -16548-2 0  9992
2 55174  87.8967 148.0324 0002026  48.4575 311.6726 13.11415418 82289
ONEWEB-0713             
1 55175U 23004AM  24261.73464659 -.00000288  00000+0 -84861-3 0  9990
2 55175  87.8967 148.0368 0001811  64.0273 296.1041 13.11418485 82271
ONEWEB-0715             
1 55176U 23004AN  24262.18736409 -.00000535  00000+0 -15463-2 0  9992
2 55176  87.8972 147.9478 0002378  72.0492 288.0895 13.11410745 82389
